{
  "type": "FeatureCollection",
  "features": [
    {
      "type": "Feature",
      "properties": {
        "norad_id": 34492,
        "name": "IRIDIUM 33 DEB",
        "group": "iridium-33-debris",
        "lat": 13.60830906254859,
        "lon": 148.90133116261543,
        "alt_km": 691.7739344836782,
        "timestamp": "2025-12-24T18:55:56.456254+00:00",
        "meta_object_name": "IRIDIUM 33 DEB",
        "meta_object_id": "1997-051GH",
        "meta_epoch": "2025-12-23T09:11:16.550880",
        "meta_mean_motion": 14.25905293,
        "meta_eccentricity": 0.01887647,
        "meta_inclination": 86.4718,
        "meta_ra_of_asc_node": 330.3252,
        "meta_arg_of_pericenter": 203.591,
        "meta_mean_anomaly": 310.8385,
        "meta_ephemeris_type": 0,
        "meta_classification_type": "U",
        "meta_norad_cat_id": 34492,
        "meta_element_set_no": 999,
        "meta_rev_at_epoch": 85210,
        "meta_bstar": 0.0030136901,
        "meta_mean_motion_dot": 8.678e-05,
        "meta_mean_motion_ddot": 0,
        "tle_line1": "1 34492U 97051GH  25357.38283045  .00008678  00000+0  30137-2 0  9993",
        "tle_line2": "2 34492  86.4718 330.3252 0188764 203.5910 310.8385 14.25905293852104"
      },
      "geometry": {
        "type": "Point",
        "coordinates": [
          148.90133116261543,
          13.60830906254859
        ]
      }
    },
    {
      "type": "Feature",
      "properties": {
        "norad_id": 34497,
        "name": "IRIDIUM 33 DEB",
        "group": "iridium-33-debris",
        "lat": 62.98636522974412,
        "lon": -140.08378828842376,
        "alt_km": 850.0151279670263,
        "timestamp": "2025-12-24T18:55:56.456264+00:00",
        "meta_object_name": "IRIDIUM 33 DEB",
        "meta_object_id": "1997-051GN",
        "meta_epoch": "2025-12-22T21:33:03.136608",
        "meta_mean_motion": 14.27482363,
        "meta_eccentricity": 0.00780484,
        "meta_inclination": 86.2769,
        "meta_ra_of_asc_node": 48.0617,
        "meta_arg_of_pericenter": 306.2683,
        "meta_mean_anomaly": 179.2919,
        "meta_ephemeris_type": 0,
        "meta_classification_type": "U",
        "meta_norad_cat_id": 34497,
        "meta_element_set_no": 999,
        "meta_rev_at_epoch": 87028,
        "meta_bstar": 0.00056228088,
        "meta_mean_motion_dot": 1.443e-05,
        "meta_mean_motion_ddot": 0,
        "tle_line1": "1 34497U 97051GN  25356.89795297  .00001443  00000+0  56228-3 0  9993",
        "tle_line2": "2 34497  86.2769  48.0617 0078048 306.2683 179.2919 14.27482363870281"
      },
      "geometry": {
        "type": "Point",
        "coordinates": [
          -140.08378828842376,
          62.98636522974412
        ]
      }
    },
    {
      "type": "Feature",
      "properties": {
        "norad_id": 34508,
        "name": "IRIDIUM 33 DEB",
        "group": "iridium-33-debris",
        "lat": 30.264494139967997,
        "lon": 99.65785601180356,
        "alt_km": 772.9451863181794,
        "timestamp": "2025-12-24T18:55:56.456275+00:00",
        "meta_object_name": "IRIDIUM 33 DEB",
        "meta_object_id": "1997-051GZ",
        "meta_epoch": "2025-12-23T06:03:45.637920",
        "meta_mean_motion": 14.38502292,
        "meta_eccentricity": 0.00666476,
        "meta_inclination": 86.3705,
        "meta_ra_of_asc_node": 98.1866,
        "meta_arg_of_pericenter": 139.2389,
        "meta_mean_anomaly": 221.3824,
        "meta_ephemeris_type": 0,
        "meta_classification_type": "U",
        "meta_norad_cat_id": 34508,
        "meta_element_set_no": 999,
        "meta_rev_at_epoch": 87460,
        "meta_bstar": 0.0011996031,
        "meta_mean_motion_dot": 3.78e-05,
        "meta_mean_motion_ddot": 0,
        "tle_line1": "1 34508U 97051GZ  25357.25261155  .00003780  00000+0  11996-2 0  9996",
        "tle_line2": "2 34508  86.3705  98.1866 0066647 139.2389 221.3824 14.38502292874606"
      },
      "geometry": {
        "type": "Point",
        "coordinates": [
          99.65785601180356,
          30.264494139967997
        ]
      }
    },
    {
      "type": "Feature",
      "properties": {
        "norad_id": 34521,
        "name": "IRIDIUM 33 DEB",
        "group": "iridium-33-debris",
        "lat": -29.354166294959942,
        "lon": -152.7165545517968,
        "alt_km": 686.4465569814038,
        "timestamp": "2025-12-24T18:55:56.456285+00:00",
        "meta_object_name": "IRIDIUM 33 DEB",
        "meta_object_id": "1997-051HN",
        "meta_epoch": "2025-12-24T03:12:35.283744",
        "meta_mean_motion": 14.63456562,
        "meta_eccentricity": 0.0003031,
        "meta_inclination": 86.3785,
        "meta_ra_of_asc_node": 25.5306,
        "meta_arg_of_pericenter": 169.1513,
        "meta_mean_anomaly": 190.9765,
        "meta_ephemeris_type": 0,
        "meta_classification_type": "U",
        "meta_norad_cat_id": 34521,
        "meta_element_set_no": 999,
        "meta_rev_at_epoch": 88639,
        "meta_bstar": 0.0008702054,
        "meta_mean_motion_dot": 4.525e-05,
        "meta_mean_motion_ddot": 0,
        "tle_line1": "1 34521U 97051HN  25358.13374171  .00004525  00000+0  87021-3 0  9993",
        "tle_line2": "2 34521  86.3785  25.5306 0003031 169.1513 190.9765 14.63456562886391"
      },
      "geometry": {
        "type": "Point",
        "coordinates": [
          -152.7165545517968,
          -29.354166294959942
        ]
      }
    },
    {
      "type": "Feature",
      "properties": {
        "norad_id": 34525,
        "name": "IRIDIUM 33 DEB",
        "group": "iridium-33-debris",
        "lat": -40.635872059538805,
        "lon": -135.1781139943749,
        "alt_km": 759.4813655752514,
        "timestamp": "2025-12-24T18:55:56.456296+00:00",
        "meta_object_name": "IRIDIUM 33 DEB",
        "meta_object_id": "1997-051HS",
        "meta_epoch": "2025-12-24T03:10:54.670080",
        "meta_mean_motion": 14.4293133,
        "meta_eccentricity": 0.00062908,
        "meta_inclination": 86.3717,
        "meta_ra_of_asc_node": 41.9805,
        "meta_arg_of_pericenter": 68.8612,
        "meta_mean_anomaly": 344.8819,
        "meta_ephemeris_type": 0,
        "meta_classification_type": "U",
        "meta_norad_cat_id": 34525,
        "meta_element_set_no": 999,
        "meta_rev_at_epoch": 88252,
        "meta_bstar": 0.00032438464,
        "meta_mean_motion_dot": 1.104e-05,
        "meta_mean_motion_ddot": 0,
        "tle_line1": "1 34525U 97051HS  25358.13257720  .00001104  00000+0  32438-3 0  9999",
        "tle_line2": "2 34525  86.3717  41.9805 0006290  68.8612 344.8819 14.42931330882520"
      },
      "geometry": {
        "type": "Point",
        "coordinates": [
          -135.1781139943749,
          -40.635872059538805
        ]
      }
    },
    {
      "type": "Feature",
      "properties": {
        "norad_id": 34529,
        "name": "IRIDIUM 33 DEB",
        "group": "iridium-33-debris",
        "lat": 15.623221288772406,
        "lon": 31.29389945281827,
        "alt_km": 759.7922854939343,
        "timestamp": "2025-12-24T18:55:56.456313+00:00",
        "meta_object_name": "IRIDIUM 33 DEB",
        "meta_object_id": "1997-051HW",
        "meta_epoch": "2025-12-23T12:51:13.501152",
        "meta_mean_motion": 14.4062425,
        "meta_eccentricity": 0.0006028,
        "meta_inclination": 86.363,
        "meta_ra_of_asc_node": 30.809,
        "meta_arg_of_pericenter": 146.0687,
        "meta_mean_anomaly": 214.0899,
        "meta_ephemeris_type": 0,
        "meta_classification_type": "U",
        "meta_norad_cat_id": 34529,
        "meta_element_set_no": 999,
        "meta_rev_at_epoch": 88297,
        "meta_bstar": 0.00011429374,
        "meta_mean_motion_dot": 3.84e-06,
        "meta_mean_motion_ddot": 0,
        "tle_line1": "1 34529U 97051HW  25357.53557293  .00000384  00000+0  11429-3 0  9990",
        "tle_line2": "2 34529  86.3630  30.8090 0006028 146.0687 214.0899 14.40624250882974"
      },
      "geometry": {
        "type": "Point",
        "coordinates": [
          31.29389945281827,
          15.623221288772406
        ]
      }
    },
    {
      "type": "Feature",
      "properties": {
        "norad_id": 34538,
        "name": "IRIDIUM 33 DEB",
        "group": "iridium-33-debris",
        "lat": -57.53433265672757,
        "lon": -5.597359258174431,
        "alt_km": 734.8194086691428,
        "timestamp": "2025-12-24T18:55:56.456337+00:00",
        "meta_object_name": "IRIDIUM 33 DEB",
        "meta_object_id": "1997-051JF",
        "meta_epoch": "2025-12-24T01:10:25.171680",
        "meta_mean_motion": 14.42711069,
        "meta_eccentricity": 0.00319482,
        "meta_inclination": 86.2766,
        "meta_ra_of_asc_node": 0.6013,
        "meta_arg_of_pericenter": 288.8052,
        "meta_mean_anomaly": 132.7783,
        "meta_ephemeris_type": 0,
        "meta_classification_type": "U",
        "meta_norad_cat_id": 34538,
        "meta_element_set_no": 999,
        "meta_rev_at_epoch": 87919,
        "meta_bstar": 0.00093145134,
        "meta_mean_motion_dot": 3.137e-05,
        "meta_mean_motion_ddot": 0,
        "tle_line1": "1 34538U 97051JF  25358.04890245  .00003137  00000+0  93145-3 0  9998",
        "tle_line2": "2 34538  86.2766   0.6013 0031948 288.8052 132.7783 14.42711069879198"
      },
      "geometry": {
        "type": "Point",
        "coordinates": [
          -5.597359258174431,
          -57.53433265672757
        ]
      }
    }
  ]
}